NORAD_CAT_ID,OBJECT_NAME,OBJECT_TYPE,EPOCH,MEAN_MOTION,ECCENTRICITY,INCLINATION,RA_OF_ASC_NODE,ARG_OF_PERICENTER,MEAN_ANOMALY,BSTAR,MEAN_MOTION_DOT,MEAN_MOTION_DDOT,TLE_LINE0,TLE_LINE1,TLE_LINE2,SEMIMAJOR_AXIS,PERIOD,APOGEE,PERIGEE,DECAYED
53934.0,STARLINK-4775,PAYLOAD,2024-02-07 21:59:18,15.08834969,0.0001633,53.2169,114.4156,96.5988,263.519,3.5566e-05,2.78e-06,0.0,0 STARLINK-4775,1 53934U 22119BA  24038.91619101  .00000278  00000-0  35566-4 0  9990,2 53934  53.2169 114.4156 0001633  96.5988 263.5190 15.08834969 77207,6917.896,95.438,540.89,538.631,0.0
53934.0,STARLINK-4775,PAYLOAD,2024-02-08 13:53:10,15.08839755,0.0001679,53.217,111.439,92.8988,267.2197,4.8041e-05,4.77e-06,0.0,0 STARLINK-4775,1 53934U 22119BA  24039.57858931  .00000477  00000-0  48041-4 0  9992,2 53934  53.2170 111.4390 0001679  92.8988 267.2197 15.08839755 77302,6917.881,95.438,540.908,538.585,0.0
53934.0,STARLINK-4775,PAYLOAD,2024-02-09 04:11:38,15.08842429,0.0001649,53.2174,108.7649,85.922,274.1961,-5.7878e-05,-1.209e-05,0.0,0 STARLINK-4775,1 53934U 22119BA  24040.17475348 -.00001209  00000-0 -57878-4 0  9991,2 53934  53.2174 108.7649 0001649  85.9220 274.1961 15.08842429 76959,6917.873,95.437,540.879,538.597,0.0
53934.0,STARLINK-4775,PAYLOAD,2024-02-09 12:08:34,15.08845445,0.000164,53.2172,107.2785,83.6913,276.4265,-8.9779e-06,-4.31e-06,0.0,0 STARLINK-4775,1 53934U 22119BA  24040.50594981 -.00000431  00000-0 -89779-5 0  9995,2 53934  53.2172 107.2785 0001640  83.6913 276.4265 15.08845445 77445,6917.864,95.437,540.863,538.594,0.0
53934.0,STARLINK-4775,PAYLOAD,2024-02-10 10:23:58,15.08840364,0.0001534,53.2171,103.1156,90.4832,269.6336,-1.0099e-05,-4.49e-06,0.0,0 STARLINK-4775,1 53934U 22119BA  24041.43331374 -.00000449  00000-0 -10099-4 0  9990,2 53934  53.2171 103.1156 0001534  90.4832 269.6336 15.08840364 77144,6917.879,95.438,540.805,538.683,0.0
53934.0,STARLINK-4775,PAYLOAD,2024-02-11 10:14:44,15.08844725,0.0001578,53.2179,98.6555,86.6155,273.5018,9.2707e-05,1.188e-05,0.0,0 STARLINK-4775,1 53934U 22119BA  24042.42690772  .00001188  00000-0  92707-4 0  9995,2 53934  53.2179  98.6555 0001578  86.6155 273.5018 15.08844725 77737,6917.866,95.437,540.823,538.639,0.0
53934.0,STARLINK-4775,PAYLOAD,2024-02-12 10:05:31,15.08842718,0.0001595,53.2173,94.1955,91.8161,268.3014,8.1575e-05,1.011e-05,0.0,0 STARLINK-4775,1 53934U 22119BA  24043.42050730  .00001011  00000-0  81575-4 0  9996,2 53934  53.2173  94.1955 0001595  91.8161 268.3014 15.08842718 77884,6917.872,95.437,540.84,538.634,0.0
53934.0,STARLINK-4775,PAYLOAD,2024-02-13 03:34:47,15.08834005,0.0001571,53.2175,90.9227,104.797,255.3196,-7.736e-05,-1.519e-05,0.0,0 STARLINK-4775,1 53934U 22119BA  24044.14915820 -.00001519  00000-0 -77360-4 0  9998,2 53934  53.2175  90.9227 0001571 104.7970 255.3196 15.08834005 77559,6917.899,95.438,540.851,538.677,0.0
53934.0,STARLINK-4775,PAYLOAD,2024-02-13 09:56:19,15.08836422,0.0001504,53.2175,89.7342,99.9547,260.1615,-4.7157e-05,-1.038e-05,0.0,0 STARLINK-4775,1 53934U 22119BA  24044.41411708 -.00001038  00000-0 -47157-4 0  9991,2 53934  53.2175  89.7342 0001504  99.9547 260.1615 15.08836422 78033,6917.891,95.438,540.797,538.716,0.0
53934.0,STARLINK-4775,PAYLOAD,2024-02-13 19:28:38,15.08838602,0.0001557,53.2177,87.9506,101.7581,258.3586,-3.0397e-05,-7.72e-06,0.0,0 STARLINK-4775,1 53934U 22119BA  24044.81155614 -.00000772  00000-0 -30397-4 0  9998,2 53934  53.2177  87.9506 0001557 101.7581 258.3586 15.08838602 78099,6917.885,95.438,540.827,538.673,0.0
53934.0,STARLINK-4775,PAYLOAD,2024-02-14 09:47:06,15.08840384,0.0001793,53.2185,85.2756,110.9549,249.1635,7.0663e-05,8.37e-06,0.0,0 STARLINK-4775,1 53934U 22119BA  24045.40771334  .00000837  00000-0  70663-4 0  9997,2 53934  53.2185  85.2756 0001793 110.9549 249.1635 15.08840384 77748,6917.879,95.438,540.985,538.504,0.0
53934.0,STARLINK-4775,PAYLOAD,2024-02-14 12:57:52,15.08849611,0.0001624,53.2185,84.6779,95.9151,264.2027,5.1061e-05,5.25e-06,0.0,0 STARLINK-4775,1 53934U 22119BA  24045.54018754  .00000525  00000-0  51061-4 0  9997,2 53934  53.2185  84.6779 0001624  95.9151 264.2027 15.08849611 78207,6917.851,95.437,540.839,538.593,0.0
53934.0,STARLINK-4775,PAYLOAD,2024-02-14 19:19:26,15.08826447,0.0002048,53.2181,83.4866,98.6917,261.4307,3.1166e-05,2.08e-06,0.0,0 STARLINK-4775,1 53934U 22119BA  24045.80516533  .00000208  00000-0  31166-4 0  9996,2 53934  53.2181  83.4866 0002048  98.6917 261.4307 15.08826447 77805,6917.922,95.438,541.204,538.37,0.0
53934.0,STARLINK-4775,PAYLOAD,2024-02-15 09:37:54,15.0883204,0.0001772,53.2183,80.8087,96.6815,263.4378,6.612e-05,7.64e-06,0.0,0 STARLINK-4775,1 53934U 22119BA  24046.40132391  .00000764  00000-0  66120-4 0  9994,2 53934  53.2183  80.8087 0001772  96.6815 263.4378 15.08832040 78336,6917.905,95.438,540.996,538.544,0.0
53934.0,STARLINK-4775,PAYLOAD,2024-02-15 19:10:13,15.08838376,0.0001713,53.2183,79.0251,85.165,274.9538,6.9247e-05,8.14e-06,0.0,0 STARLINK-4775,1 53934U 22119BA  24046.79876176  .00000814  00000-0  69247-4 0  9991,2 53934  53.2183  79.0251 0001713  85.1650 274.9538 15.08838376 77954,6917.885,95.438,540.935,538.565,0.0
53934.0,STARLINK-4775,PAYLOAD,2024-02-16 09:28:41,15.08843157,0.0001627,53.2179,76.3509,86.5804,273.5375,4.4693e-05,4.23e-06,0.0,0 STARLINK-4775,1 53934U 22119BA  24047.39492086  .00000423  00000-0  44693-4 0  9996,2 53934  53.2179  76.3509 0001627  86.5804 273.5375 15.08843157 78481,6917.871,95.437,540.861,538.61,0.0
53934.0,STARLINK-4775,PAYLOAD,2024-02-17 01:22:33,15.0883032,0.0001685,53.2169,73.3791,78.7813,281.3368,0.00010203,1.336e-05,0.0,0 STARLINK-4775,1 53934U 22119BA  24048.05732886  .00001336  00000-0  10203-3 0  9998,2 53934  53.2169  73.3791 0001685  78.7813 281.3368 15.08830320 78147,6917.91,95.438,540.941,538.609,0.0
53934.0,STARLINK-4775,PAYLOAD,2024-02-17 09:19:28,15.08839077,0.000168,53.218,71.8911,86.5261,273.5923,3.7837e-05,3.14e-06,0.0,0 STARLINK-4775,1 53934U 22119BA  24048.38852683  .00000314  00000-0  37837-4 0  9990,2 53934  53.2180  71.8911 0001680  86.5261 273.5923 15.08839077 78638,6917.883,95.438,540.91,538.586,0.0
53934.0,STARLINK-4775,PAYLOAD,2024-02-17 18:51:47,15.08841678,0.000168,53.2181,70.1065,86.5124,273.606,5.4821e-05,5.85e-06,0.0,0 STARLINK-4775,1 53934U 22119BA  24048.78596459  .00000585  00000-0  54821-4 0  9992,2 53934  53.2181  70.1065 0001680  86.5124 273.6060 15.08841678 78250,6917.875,95.437,540.902,538.578,0.0
53934.0,STARLINK-4775,PAYLOAD,2024-02-18 10:45:37,15.08855226,0.0001969,53.2175,67.1306,102.3781,257.7432,0.00012279,1.667e-05,0.0,0 STARLINK-4775,1 53934U 22119BA  24049.44835239  .00001667  00000-0  12279-3 0  9990,2 53934  53.2175  67.1306 0001969 102.3781 257.7432 15.08855226 78354,6917.834,95.437,541.061,538.337,0.0
53934.0,STARLINK-4775,PAYLOAD,2024-02-18 18:42:34,15.08834308,0.0001902,53.2177,65.6444,89.0575,271.0635,6.2051e-05,6.99e-06,0.0,0 STARLINK-4775,1 53934U 22119BA  24049.77956838  .00000699  00000-0  62051-4 0  9993,2 53934  53.2177  65.6444 0001902  89.0575 271.0635 15.08834308 78409,6917.898,95.438,541.079,538.447,0.0
53934.0,STARLINK-4775,PAYLOAD,2024-02-19 07:25:39,15.08843992,0.0001581,53.2179,63.2654,93.7466,266.3707,8.7376e-05,1.103e-05,0.0,0 STARLINK-4775,1 53934U 22119BA  24050.30948180  .00001103  00000-0  87376-4 0  9993,2 53934  53.2179  63.2654 0001581  93.7466 266.3707 15.08843992 78486,6917.868,95.437,540.827,538.639,0.0
53934.0,STARLINK-4775,PAYLOAD,2024-02-20 04:05:40,15.08837943,0.0001507,53.2172,59.4004,92.9383,267.1781,-1.6485e-05,-5.5e-06,0.0,0 STARLINK-4775,1 53934U 22119BA  24051.17060814 -.00000550  00000-0 -16485-4 0  9998,2 53934  53.2172  59.4004 0001507  92.9383 267.1781 15.08837943 78617,6917.887,95.438,540.794,538.709,0.0
53934.0,STARLINK-4775,PAYLOAD,2024-02-20 07:16:26,15.08839304,0.000143,53.2172,58.8046,97.4201,262.6954,1.1359e-05,-1.07e-06,0.0,0 STARLINK-4775,1 53934U 22119BA  24051.30308635 -.00000107  00000-0  11359-4 0  9991,2 53934  53.2172  58.8046 0001430  97.4201 262.6954 15.08839304 79076,6917.883,95.438,540.737,538.758,0.0
53934.0,STARLINK-4775,PAYLOAD,2024-02-20 16:48:45,15.08843854,0.0001553,53.2173,57.0205,96.4442,263.6727,-5.0799e-05,-1.096e-05,0.0,0 STARLINK-4775,1 53934U 22119BA  24051.70052490 -.00001096  00000-0 -50799-4 0  9990,2 53934  53.2173  57.0205 0001553  96.4442 263.6727 15.08843854 79138,6917.869,95.437,540.808,538.659,0.0
53934.0,STARLINK-4775,PAYLOAD,2024-02-21 10:17:59,15.08842975,0.000149,53.218,53.7513,93.6319,266.4844,7.0416e-05,8.33e-06,0.0,0 STARLINK-4775,1 53934U 22119BA  24052.42916494  .00000833  00000-0  70416-4 0  9997,2 53934  53.2180  53.7513 0001490  93.6319 266.4844 15.08842975 78800,6917.871,95.437,540.767,538.706,0.0
53934.0,STARLINK-4775,PAYLOAD,2024-02-21 16:39:32,15.0883525,0.0001404,53.2177,52.5608,90.1036,270.0117,6.8038e-05,7.95e-06,0.0,0 STARLINK-4775,1 53934U 22119BA  24052.69413040  .00000795  00000-0  68038-4 0  9999,2 53934  53.2177  52.5608 0001404  90.1036 270.0117 15.08835250 78847,6917.895,95.438,540.731,538.789,0.0
53934.0,STARLINK-4775,PAYLOAD,2024-02-22 06:58:01,15.08833566,0.0001546,53.2197,49.8872,102.922,257.1945,6.5719e-05,7.58e-06,0.0,0 STARLINK-4775,1 53934U 22119BA  24053.29029404  .00000758  00000-0  65719-4 0  9995,2 53934  53.2197  49.8872 0001546 102.9220 257.1945 15.08833566 79377,6917.9,95.438,540.835,538.696,0.0
53934.0,STARLINK-4775,PAYLOAD,2024-02-23 03:38:01,15.08836165,0.0001243,53.2195,46.02,95.6745,264.4389,0.0001456,2.03e-05,0.0,0 STARLINK-4775,1 53934U 22119BA  24054.15141167  .00002030  00000-0  14560-3 0  9994,2 53934  53.2195  46.0200 0001243  95.6745 264.4389 15.08836165 79060,6917.892,95.438,540.617,538.897,0.0
53934.0,STARLINK-4775,PAYLOAD,2024-02-23 06:48:47,15.08844954,0.0001455,53.2186,45.4252,92.6715,267.4444,9.0356e-05,1.151e-05,0.0,0 STARLINK-4775,1 53934U 22119BA  24054.28388849  .00001151  00000-0  90356-4 0  9999,2 53934  53.2186  45.4252 0001455  92.6715 267.4444 15.08844954 79520,6917.865,95.437,540.737,538.724,0.0
